NORAD_CAT_ID,OBJECT_NAME,OBJECT_TYPE,EPOCH,MEAN_MOTION,ECCENTRICITY,INCLINATION,RA_OF_ASC_NODE,ARG_OF_PERICENTER,MEAN_ANOMALY,BSTAR,MEAN_MOTION_DOT,MEAN_MOTION_DDOT,TLE_LINE0,TLE_LINE1,TLE_LINE2,SEMIMAJOR_AXIS,PERIOD,APOGEE,PERIGEE,DECAYED
53574.0,STARLINK-4559,PAYLOAD,2023-11-13 02:39:36,15.08850342,0.0001451,53.2155,258.7634,86.6362,273.4796,0.00024664,3.641e-05,0.0,0 STARLINK-4559,1 53574U 22101AZ  23317.11083548  .00003641  00000-0  24664-3 0  9995,2 53574  53.2155 258.7634 0001451  86.6362 273.4796 15.08850342 68495,6917.849,95.437,540.718,538.71,0.0
53574.0,STARLINK-4559,PAYLOAD,2023-11-13 13:47:18,15.08839598,0.0002124,53.2154,256.6825,76.1731,283.9497,9.0346e-05,1.15e-05,0.0,0 STARLINK-4559,1 53574U 22101AZ  23317.57452166  .00001150  00000-0  90346-4 0  9995,2 53574  53.2154 256.6825 0002124  76.1731 283.9497 15.08839598 68567,6917.882,95.438,541.216,538.277,0.0
53574.0,STARLINK-4559,PAYLOAD,2023-11-14 05:41:09,15.08842162,0.0001536,53.2159,253.7064,88.6864,271.4304,9.4859e-05,1.222e-05,0.0,0 STARLINK-4559,1 53574U 22101AZ  23318.23691819  .00001222  00000-0  94859-4 0  9992,2 53574  53.2159 253.7064 0001536  88.6864 271.4304 15.08842162 68667,6917.874,95.437,540.801,538.676,0.0
53574.0,STARLINK-4559,PAYLOAD,2023-11-15 02:21:10,15.08842021,0.0001628,53.2169,249.8387,90.2693,269.8486,8.9721e-05,1.14e-05,0.0,0 STARLINK-4559,1 53574U 22101AZ  23319.09803965  .00001140  00000-0  89721-4 0  9995,2 53574  53.2169 249.8387 0001628  90.2693 269.8486 15.08842021 68793,6917.874,95.437,540.865,538.613,0.0
53574.0,STARLINK-4559,PAYLOAD,2023-11-15 05:31:56,15.08842507,0.0001601,53.2167,249.2442,90.7917,269.3258,0.00010518,1.386e-05,0.0,0 STARLINK-4559,1 53574U 22101AZ  23319.23051948  .00001386  00000-0  10518-3 0  9996,2 53574  53.2167 249.2442 0001601  90.7917 269.3258 15.08842507 68816,6917.873,95.437,540.845,538.63,0.0
53574.0,STARLINK-4559,PAYLOAD,2023-11-16 05:22:44,15.0883861,0.0001544,53.2167,244.7836,87.7526,272.3643,8.4622e-05,1.059e-05,0.0,0 STARLINK-4559,1 53574U 22101AZ  23320.22412302  .00001059  00000-0  84622-4 0  9997,2 53574  53.2167 244.7836 0001544  87.7526 272.3643 15.08838610 68969,6917.885,95.438,540.818,538.682,0.0
53574.0,STARLINK-4559,PAYLOAD,2023-11-16 18:05:49,15.08835857,0.0001576,53.2159,242.4045,120.2588,239.856,3.9902e-05,3.47e-06,0.0,0 STARLINK-4559,1 53574U 22101AZ  23320.75404311  .00000347  00000-0  39902-4 0  9996,2 53574  53.2159 242.4045 0001576 120.2588 239.8560 15.08835857 69049,6917.893,95.438,540.848,538.668,0.0
53574.0,STARLINK-4559,PAYLOAD,2023-11-17 11:35:03,15.08837692,0.0001615,53.2173,239.1378,91.0157,269.102,-3.5798e-05,-8.58e-06,0.0,0 STARLINK-4559,1 53574U 22101AZ  23321.48268347 -.00000858  00000-0 -35798-4 0  9992,2 53574  53.2173 239.1378 0001615  91.0157 269.1020 15.08837692 69156,6917.887,95.438,540.87,538.635,0.0
53574.0,STARLINK-4559,PAYLOAD,2023-11-17 22:42:46,15.08817109,0.0001647,53.2175,237.0559,99.6649,260.4529,0.00040424,6.147e-05,0.0,0 STARLINK-4559,1 53574U 22101AZ  23321.94637044  .00006147  00000-0  40424-3 0  9993,2 53574  53.2175 237.0559 0001647  99.6649 260.4529 15.08817109 69228,6917.95,95.439,540.955,538.676,0.0
53574.0,STARLINK-4559,PAYLOAD,2023-11-18 03:28:55,15.08821908,0.0001675,53.2174,236.1633,95.0538,265.0646,0.00041325,6.292e-05,0.0,0 STARLINK-4559,1 53574U 22101AZ  23322.14509025  .00006292  00000-0  41325-3 0  9995,2 53574  53.2174 236.1633 0001675  95.0538 265.0646 15.08821908 69254,6917.936,95.439,540.959,538.642,0.0
53574.0,STARLINK-4559,PAYLOAD,2023-11-18 11:25:50,15.0884619,0.0001532,53.2172,234.6762,89.0782,271.0386,-7.9591e-06,-4.15e-06,0.0,0 STARLINK-4559,1 53574U 22101AZ  23322.47628425 -.00000415  00000-0 -79591-5 0  9998,2 53574  53.2172 234.6762 0001532  89.0782 271.0386 15.08846190 69308,6917.861,95.437,540.786,538.667,0.0
53574.0,STARLINK-4559,PAYLOAD,2023-11-19 11:16:38,15.08840497,0.0001546,53.2175,230.215,86.1264,273.9904,7.971e-05,9.81e-06,0.0,0 STARLINK-4559,1 53574U 22101AZ  23323.46988685  .00000981  00000-0  79710-4 0  9993,2 53574  53.2175 230.2150 0001546  86.1264 273.9904 15.08840497 69459,6917.879,95.438,540.813,538.674,0.0
53574.0,STARLINK-4559,PAYLOAD,2023-11-19 22:24:20,15.08839639,0.0001523,53.2169,228.1337,86.4756,273.6411,7.1188e-05,8.45e-06,0.0,0 STARLINK-4559,1 53574U 22101AZ  23323.93356687  .00000845  00000-0  71188-4 0  9996,2 53574  53.2169 228.1337 0001523  86.4756 273.6411 15.08839639 69523,6917.881,95.438,540.8,538.693,0.0
53574.0,STARLINK-4559,PAYLOAD,2023-11-20 11:07:24,15.08848591,0.0001499,53.2167,225.7552,87.9232,272.1932,4.9283e-05,4.97e-06,0.0,0 STARLINK-4559,1 53574U 22101AZ  23324.46348064  .00000497  00000-0  49283-4 0  9999,2 53574  53.2167 225.7552 0001499  87.9232 272.1932 15.08848591 69608,6917.854,95.437,540.756,538.682,0.0
53574.0,STARLINK-4559,PAYLOAD,2023-11-20 22:15:06,15.0884674,0.0001537,53.2165,223.6739,86.6521,273.4647,8.6213e-05,1.085e-05,0.0,0 STARLINK-4559,1 53574U 22101AZ  23324.92715992  .00001085  00000-0  86213-4 0  9996,2 53574  53.2165 223.6739 0001537  86.6521 273.4647 15.08846740 69678,6917.86,95.437,540.788,538.662,0.0
53574.0,STARLINK-4559,PAYLOAD,2023-11-21 03:01:15,15.08852874,0.0001523,53.2162,222.7808,91.1797,268.937,9.5567e-05,1.234e-05,0.0,0 STARLINK-4559,1 53574U 22101AZ  23325.12587478  .00001234  00000-0  95567-4 0  9993,2 53574  53.2162 222.7808 0001523  91.1797 268.9370 15.08852874 69704,6917.841,95.437,540.76,538.652,0.0
53574.0,STARLINK-4559,PAYLOAD,2023-11-21 10:58:12,15.08834293,0.0001334,53.2164,221.2955,96.7915,263.3229,4.188e-06,-2.21e-06,0.0,0 STARLINK-4559,1 53574U 22101AZ  23325.45708874 -.00000221  00000-0  41880-5 0  9990,2 53574  53.2164 221.2955 0001334  96.7915 263.3229 15.08834293 69758,6917.898,95.438,540.686,538.84,0.0
53574.0,STARLINK-4559,PAYLOAD,2023-11-21 20:30:30,15.08840584,0.0001408,53.2149,219.5122,88.3836,271.7317,6.8147e-05,7.97e-06,0.0,0 STARLINK-4559,1 53574U 22101AZ  23325.85452540  .00000797  00000-0  68147-4 0  9991,2 53574  53.2149 219.5122 0001408  88.3836 271.7317 15.08840584 69816,6917.879,95.438,540.718,538.77,0.0
53574.0,STARLINK-4559,PAYLOAD,2023-11-21 23:41:17,15.08843546,0.0001448,53.2149,218.9161,93.6098,266.5059,9.0693e-05,1.156e-05,0.0,0 STARLINK-4559,1 53574U 22101AZ  23325.98700275  .00001156  00000-0  90693-4 0  9997,2 53574  53.2149 218.9161 0001448  93.6098 266.5059 15.08843546 69833,6917.87,95.437,540.736,538.733,0.0
53574.0,STARLINK-4559,PAYLOAD,2023-11-22 20:21:17,15.08848791,0.0001464,53.2156,215.0503,95.3572,264.7587,0.00013448,1.853e-05,0.0,0 STARLINK-4559,1 53574U 22101AZ  23326.84811908  .00001853  00000-0  13448-3 0  9995,2 53574  53.2156 215.0503 0001464  95.3572 264.7587 15.08848791 69960,6917.854,95.437,540.731,538.706,0.0
53574.0,STARLINK-4559,PAYLOAD,2023-11-22 21:56:40,15.08850797,0.0001489,53.2159,214.7534,92.1658,267.9505,0.00016686,2.369e-05,0.0,0 STARLINK-4559,1 53574U 22101AZ  23326.91435825  .00002369  00000-0  16686-3 0  9993,2 53574  53.2159 214.7534 0001489  92.1658 267.9505 15.08850797 69975,6917.847,95.437,540.742,538.682,0.0
53574.0,STARLINK-4559,PAYLOAD,2023-11-23 20:12:05,15.08827737,0.0001285,53.2154,210.5908,104.8723,255.2411,-0.00012189,-2.227e-05,0.0,0 STARLINK-4559,1 53574U 22101AZ  23327.84172982 -.00002227  00000-0 -12189-3 0  9997,2 53574  53.2154 210.5908 0001285 104.8723 255.2411 15.08827737 70119,6917.918,95.438,540.672,538.894,0.0
53574.0,STARLINK-4559,PAYLOAD,2023-11-23 21:47:28,15.08827254,0.0001292,53.2151,210.2932,105.7428,254.3707,-0.00012754,-2.316e-05,0.0,0 STARLINK-4559,1 53574U 22101AZ  23327.90797024 -.00002316  00000-0 -12754-3 0  9991,2 53574  53.2151 210.2932 0001292 105.7428 254.3707 15.08827254 70123,6917.919,95.438,540.678,538.891,0.0
53574.0,STARLINK-4559,PAYLOAD,2023-11-23 23:22:51,15.08829038,0.0001267,53.2149,209.996,103.134,256.9793,-8.1655e-05,-1.587e-05,0.0,0 STARLINK-4559,1 53574U 22101AZ  23327.97421121 -.00001587  00000-0 -81655-4 0  9996,2 53574  53.2149 209.9960 0001267 103.1340 256.9793 15.08829038 70139,6917.914,95.438,540.655,538.902,0.0
53574.0,STARLINK-4559,PAYLOAD,2023-11-24 20:02:52,15.08838572,0.0001169,53.2149,206.132,102.1767,257.9356,-2.4358e-05,-6.75e-06,0.0,0 STARLINK-4559,1 53574U 22101AZ  23328.83533153 -.00000675  00000-0 -24358-4 0  9995,2 53574  53.2149 206.1320 0001169 102.1767 257.9356 15.08838572 70264,6917.885,95.438,540.558,538.941,0.0
53574.0,STARLINK-4559,PAYLOAD,2023-11-24 21:38:15,15.08839977,0.000121,53.2146,205.8341,105.0682,255.0444,1.2447e-05,-9e-07,0.0,0 STARLINK-4559,1 53574U 22101AZ  23328.90157077 -.00000090  00000-0  12447-4 0  9996,2 53574  53.2146 205.8341 0001210 105.0682 255.0444 15.08839977 70273,6917.88,95.438,540.583,538.908,0.0
53574.0,STARLINK-4559,PAYLOAD,2023-11-25 21:29:02,15.08858065,0.0001188,53.2144,201.3723,105.8025,254.3098,0.00056615,8.738e-05,0.0,0 STARLINK-4559,1 53574U 22101AZ  23329.89516721  .00008738  00000-0  56615-3 0  9990,2 53574  53.2144 201.3723 0001188 105.8025 254.3098 15.08858065 70422,6917.825,95.436,540.512,538.868,0.0
53574.0,STARLINK-4559,PAYLOAD,2023-11-26 00:39:48,15.08876209,0.0001246,53.214,200.7764,111.8203,248.2922,0.0010925,0.00017159,0.0,0 STARLINK-4559,1 53574U 22101AZ  23330.02764247  .00017159  00000-0  10925-2 0  9995,2 53574  53.2140 200.7764 0001246 111.8203 248.2922 15.08876209 70446,6917.77,95.435,540.497,538.773,0.0
53574.0,STARLINK-4559,PAYLOAD,2023-11-26 19:44:26,15.0883562,0.0001274,53.214,197.2078,82.2161,277.8976,-0.00016054,-2.842e-05,0.0,0 STARLINK-4559,1 53574U 22101AZ  23330.82252998 -.00002842  00000-0 -16054-3 0  9993,2 53574  53.2140 197.2078 0001274  82.2161 277.8976 15.08835620 70561,6917.894,95.438,540.64,538.877,0.0
53574.0,STARLINK-4559,PAYLOAD,2023-11-26 21:19:49,15.08835689,0.0001294,53.214,196.9096,90.3518,269.7622,-9.9505e-05,-1.871e-05,0.0,0 STARLINK-4559,1 53574U 22101AZ  23330.88877042 -.00001871  00000-0 -99505-4 0  9996,2 53574  53.2140 196.9096 0001294  90.3518 269.7622 15.08835689 70579,6917.894,95.438,540.654,538.863,0.0
